STARLINK-5103           
1 53983U 22125V   24226.37141576 -.00000166  00000+0  76590-5 0  9995
2 53983  53.2149 257.6801 0001600  85.4427 274.6748 15.08844651103059
STARLINK-5142           
1 53984U 22125W   24226.80111803  .00016780  00000+0  10708-2 0  9998
2 53984  53.2157 266.0743 0001377  62.5567 297.5565 15.08807657102976
STARLINK-5147           
1 53985U 22125X   24226.80846941 -.00002137  00000+0 -11624-3 0  9999
2 53985  53.2151 266.1197 0001449  76.7453 283.3700 15.08829215102974
STARLINK-5119           
1 53986U 22125Y   24226.82036615 -.00003154  00000+0 -18019-3 0  9996
2 53986  53.2155 255.5151 0001641  79.5906 280.5271 15.08828720103196
STARLINK-5112           
1 53987U 22125Z   24226.80479042 -.00000193  00000+0  59767-5 0  9996
2 53987  53.2161 266.0951 0001249  94.3133 265.8001 15.08837673102979
STARLINK-5113           
1 53988U 22125AA  24226.46620609 -.00008872  00000+0 -54087-3 0  9997
2 53988  53.2160 267.5387 0001451  79.1418 280.9737 15.08782734102915
STARLINK-5115           
1 53989U 22125AB  24226.39628890  .00001197  00000+0  93300-4 0  9993
2 53989  53.2152 267.8151 0001423  87.4734 272.6421 15.08843966102914
STARLINK-5075           
1 53990U 22125AC  24226.91667824  .01460640  00000+0  44573-2 0  9992
2 53990  53.2113 250.7623 0000859 112.5269 128.4798 15.88934544  6002
STARLINK-5118           
1 53991U 22125AD  24226.78361286 -.00003051  00000+0 -17389-3 0  9997
2 53991  53.2167 255.9325 0001469  87.0232 273.0928 15.08799892103100
STARLINK-5108           
1 53992U 22125AE  24226.38894560 -.00003084  00000+0 -17586-3 0  9995
2 53992  53.2159 267.7697 0001499  86.3543 273.7621 15.08819955102902
STARLINK-5121           
1 53993U 22125AF  24226.82913043  .00013679  00000+0  87670-3 0  9993
2 53993  53.2146 260.5461 0001459  95.5047 264.6111 15.08805371103042
STARLINK-5125           
1 53994U 22125AG  24226.84154319 -.00003120  00000+0 -17796-3 0  9993
2 53994  53.2160 265.6181 0001726  79.7581 280.3606 15.08849447102986
STARLINK-5097           
1 53995U 22125AH  24226.84893639 -.00002073  00000+0 -11226-3 0  9997
2 53995  53.2148 265.6650 0001290  89.3444 270.7696 15.08819888103052
STARLINK-5131           
1 53996U 22125AJ  24226.83788948 -.00006118  00000+0 -36699-3 0  9998
2 53996  53.2152 265.5956 0001734  75.3477 284.7708 15.08803938103058
STARLINK-5130           
1 53997U 22125AK  24226.80572110  .00012693  00000+0  81475-3 0  9993
2 53997  53.2146 256.1237 0001473  77.4544 282.6613 15.08813386103115
STARLINK-5128           
1 53998U 22125AL  24226.83051910 -.00002791  00000+0 -15758-3 0  9998
2 53998  53.2150 265.5462 0001173  82.0715 278.0410 15.08789284102981
STARLINK-5079           
1 53999U 22125AM  24226.84525664 -.00006536  00000+0 -39330-3 0  9995
2 53999  53.2150 265.6378 0001254  97.6081 262.5054 15.08806387103052
STARLINK-5088           
1 54000U 22125AN  24226.80202321 -.00002575  00000+0 -14380-3 0  9994
2 54000  53.2152 256.1016 0001518  83.3615 276.7550 15.08823386103180
STARLINK-5109           
1 54002U 22125AQ  24226.82406369  .00004482  00000+0  29968-3 0  9991
2 54002  53.2158 255.5512 0001642  84.5641 275.5538 15.08818064103126
STARLINK-5114           
1 54003U 22125AR  24226.83419975 -.00007777  00000+0 -47160-3 0  9996
2 54003  53.2145 265.5684 0001224  86.5237 273.5895 15.08799141103031
STARLINK-5129           
1 54004U 22125AS  24226.82314496 -.00013643  00000+0 -84181-3 0  9991
2 54004  53.2159 265.5028 0001478  98.1352 261.9808 15.08791668102981
STARLINK-5135           
1 54005U 22125AT  24226.82680712 -.00007024  00000+0 -42372-3 0  9991
2 54005  53.2157 265.5211 0001791  67.4694 292.6487 15.08830734102982
STARLINK-5096           
1 54006U 22125AU  24226.81208188 -.00003071  00000+0 -17500-3 0  9997
2 54006  53.2183 265.4495 0001436 102.0161 258.0992 15.08831998103033
STARLINK-5132           
1 54007U 22125AV  24226.81945256 -.00012057  00000+0 -74150-3 0  9990
2 54007  53.2150 265.4833 0000895  82.5994 277.5100 15.08802563103031
STARLINK-5145           
1 54008U 22125AW  24226.81669761 -.00004400  00000+0 -25876-3 0  9999
2 54008  53.2174 255.4924 0001278  88.3737 271.7402 15.08806852103174
STARLINK-5099           
1 54009U 22125AX  24226.81577095 -.00009140  00000+0 -55745-3 0  9992
2 54009  53.2157 265.4606 0001679 102.5036 257.6144 15.08804966103035
STARLINK-5127           
1 54010U 22125AY  24226.80930814 -.00001953  00000+0 -10464-3 0  9998
2 54010  53.2148 255.4528 0001514  79.0942 281.0221 15.08832855103126
STARLINK-5124           
1 54011U 22125AZ  24226.79835013  .00007123  00000+0  46547-3 0  9996
2 54011  53.2156 256.0785 0001447 101.9518 258.1637 15.08817501103113
STARLINK-5126           
1 54012U 22125BA  24226.37509902  .00001582  00000+0  11745-3 0  9991
2 54012  53.2144 257.7031 0001492  75.6062 284.5096 15.08844805103056
STARLINK-5098           
1 54013U 22125BB  24226.77991398 -.00003461  00000+0 -19950-3 0  9996
2 54013  53.2155 255.9676 0001734  83.8498 276.2692 15.08834002103112
STARLINK-5055           
1 54015U 22125BD  24226.77623690 -.00001796  00000+0 -94818-4 0  9991
2 54015  53.2156 255.9387 0001657  78.9695 281.1483 15.08832845103118
STARLINK-5195           
1 54051U 22136A   24226.80021942 -.00009421  00000+0 -57520-3 0  9990
2 54051  53.2142  36.1687 0001621  78.5868 281.5306 15.08801043100351
STARLINK-5189           
1 54052U 22136B   24226.75229910 -.00012997  00000+0 -80060-3 0  9997
2 54052  53.2173 355.9519 0001158 115.5220 244.5891 15.08811560100916
STARLINK-5176           
1 54053U 22136C   24226.86276953 -.00008491  00000+0 -51655-3 0  9991
2 54053  53.2161  35.8499 0001362  74.6889 285.4254 15.08803392100368
STARLINK-5163           
1 54054U 22136D   24226.85541212 -.00007027  00000+0 -42432-3 0  9991
2 54054  53.2162  35.8030 0002576  88.5133 271.6154 15.08796754100364
STARLINK-5158           
1 54055U 22136E   24226.85910078 -.00009119  00000+0 -55616-3 0  9994
2 54055  53.2144  35.8269 0002431  75.1549 284.9712 15.08797274100367
STARLINK-5226           
1 54056U 22136F   24226.80381717  .00016238  00000+0  10376-2 0  9993
2 54056  53.2139  35.4930 0001410  61.9678 298.1456 15.08782051100364
STARLINK-5167           
1 54058U 22136H   24226.77811025 -.00008648  00000+0 -52644-3 0  9994
2 54058  53.2225  36.0326 0002183  98.6871 261.4369 15.08803091100351
STARLINK-5173           
1 54059U 22136J   24226.91427486 -.00007753  00000+0 -47003-3 0  9994
2 54059  53.2141  35.4559 0001836  92.9348 267.1854 15.08800888100375
STARLINK-5169           
1 54060U 22136K   24226.80657104 -.00002064  00000+0 -11176-3 0  9998
2 54060  53.2201   5.5512 0001303  68.5222 291.5908 15.08808525100782
STARLINK-5209           
1 54061U 22136L   24226.80516970 -.00012058  00000+0 -74155-3 0  9994
2 54061  53.2126   0.4962 0001433  85.1176 274.9979 15.08802078100857
STARLINK-5170           
1 54062U 22136M   24226.90690709 -.00011798  00000+0 -72524-3 0  9997
2 54062  53.2172  35.4132 0001252  76.1145 283.9987 15.08796665100371
STARLINK-5225           
1 54063U 22136N   24226.77073903 -.00017569  00000+0 -10902-2 0  9997
2 54063  53.2163  35.9809 0000775  11.2732 348.8278 15.08783302100355
STARLINK-5172           
1 54064U 22136P   24226.72153391 -.00004533  00000+0 -26705-3 0  9999
2 54064  53.2166 351.4533 0001284  81.1821 278.9316 15.08821944100979
STARLINK-5187           
1 54065U 22136Q   24226.89584771 -.00010673  00000+0 -65423-3 0  9990
2 54065  53.2133  35.3427 0001468  79.9388 280.1770 15.08798680100374
STARLINK-5151           
1 54066U 22136R   24226.89951842 -.00007405  00000+0 -44793-3 0  9994
2 54066  53.2157  35.3641 0001061  56.0379 304.0714 15.08817422100374
STARLINK-5174           
1 54067U 22136S   24226.75599932 -.00006032  00000+0 -36162-3 0  9994
2 54067  53.2273  35.8976 0000723 316.2237  43.8698 15.08802966100352
STARLINK-5222           
1 54068U 22136T   24226.89217025 -.00010570  00000+0 -64793-3 0  9993
2 54068  53.2184  35.3199 0001300  68.1668 291.9463 15.08788523100379
STARLINK-5223           
1 54069U 22136U   24226.91667824  .01065725  00000+0  45264-2 0  9995
2 54069  53.2159   4.3050 0001047  44.0007 251.1923 15.82411390  6171
STARLINK-5181           
1 54070U 22136V   24226.81486664  .00022180  00000+0  14093-2 0  9990
2 54070  53.2156  35.5515 0001459  73.7838 286.3314 15.08787027100361
STARLINK-5168           
1 54071U 22136W   24226.87740591  .00042143  00000+0  26506-2 0  9992
2 54071  53.2172  35.2322 0001180 100.6440 259.4685 15.08834775100379
STARLINK-5144           
1 54072U 22136X   24226.81854500 -.00007091  00000+0 -42819-3 0  9994
2 54072  53.2155  35.5741 0001600  96.9224 263.1950 15.08810785100364
STARLINK-5146           
1 54073U 22136Y   24226.87604474 -.00008704  00000+0 -52996-3 0  9993
2 54073  53.2158  30.2416 0001514  78.8331 281.2832 15.08805629100441
STARLINK-5192           
1 54074U 22136Z   24226.80750092 -.00014336  00000+0 -88559-3 0  9997
2 54074  53.2134  35.5037 0002017  84.7418 275.3804 15.08790356100368
STARLINK-5212           
1 54075U 22136AA  24226.87236013 -.00005153  00000+0 -30613-3 0  9992
2 54075  53.2188  30.2155 0001312  72.9874 287.1262 15.08812832100445
STARLINK-5201           
1 54076U 22136AB  24226.86373760 -.00008435  00000+0 -51306-3 0  9991
2 54076  53.2166  35.8400 0001395  90.3613 269.7539 15.08801497100361
STARLINK-5171           
1 54077U 22136AC  24226.79568393  .00038910  00000+0  23271-2 0  9990
2 54077  53.2168  15.4795 0001591 349.1094  10.9865 15.10708508100642
STARLINK-5138           
1 54078U 22136AD  24226.83512466 -.00005289  00000+0 -31472-3 0  9994
2 54078  53.2155  15.7180 0000773 104.4783 255.6295 15.08813855100642
STARLINK-5175           
1 54079U 22136AE  24226.73117503  .00002290  00000+0  16188-3 0  9991
2 54079  53.2139  26.4561 0001660  87.6289 272.4893 15.08857169100485
